EPOCH,NORAD_CAT_ID,MEAN_MOTION,ECCENTRICITY,INCLINATION,RA_OF_ASC_NODE,ARG_OF_PERICENTER,MEAN_ANOMALY,MEAN_MOTION_DOT,BSTAR,TLE_LINE1,TLE_LINE2
2023-03-23 03:49:52.273920,50803,15.08845505,0.00011470,53.2171,348.7873,93.1485,266.9638,0.00005431,0.00035902000000,1 50803U 22001A   23082.15963280  .00005431  00000-0  35902-3 0  9995,2 50803  53.2171 348.7873 0001147  93.1485 266.9638 15.08845505 68252
2023-03-23 21:19:07.022208,50803,15.08839261,0.00010400,53.2162,345.5137,109.6431,250.4673,0.00002112,0.00015075000000,1 50803U 22001A   23082.88827572  .00002112  00000-0  15075-3 0  9990,2 50803  53.2162 345.5137 0001040 109.6431 250.4673 15.08839261 67096
2023-03-24 02:05:16.054368,50803,15.08860557,0.00008930,53.2166,344.6246,94.5546,265.5548,0.00008339,0.00054109000000,1 50803U 22001A   23083.08699137  .00008339  00000-0  54109-3 0  9995,2 50803  53.2166 344.6246 0000893  94.5546 265.5548 15.08860557 67129
2023-03-24 21:09:53.665632,50803,15.08847385,0.00010910,53.2163,341.0584,83.6270,276.4847,0.00001421,0.00010731000000,1 50803U 22001A   23083.88187113  .00001421  00000-0  10731-3 0  9997,2 50803  53.2163 341.0584 0001091  83.6270 276.4847 15.08847385 67246
2023-03-24 21:09:53.665632,50803,15.08847385,0.00010910,53.2163,341.0584,83.6270,276.4847,0.00001421,0.00010731000000,1 50803U 22001A   23083.88187113  .00001421  00000-0  10731-3 0  9997,2 50803  53.2163 341.0584 0001091  83.6270 276.4847 15.08847385 68517
2023-03-25 21:00:41.634432,50803,15.08828071,0.00013710,53.2155,336.5947,88.5094,271.6055,-0.00004849,-0.00028684000000,1 50803U 22001A   23084.87548188 -.00004849  00000-0 -28684-3 0  9995,2 50803  53.2155 336.5947 0001371  88.5094 271.6055 15.08828071 68664
2023-03-25 22:36:04.793760,50803,15.08827236,0.00011480,53.2159,336.2964,95.4509,264.6614,-0.00004657,-0.00027477000000,1 50803U 22001A   23084.94172215 -.00004657  00000-0 -27477-3 0  9993,2 50803  53.2159 336.2964 0001148  95.4509 264.6614 15.08827236 67400
2023-03-26 20:51:28.850688,50803,15.08838923,0.00010810,53.2163,332.1370,77.9041,282.2072,0.00002496,0.00017485000000,1 50803U 22001A   23085.86908392  .00002496  00000-0  17485-3 0  9993,2 50803  53.2163 332.1370 0001081  77.9041 282.2072 15.08838923 68818
2023-03-26 22:26:51.962496,50803,15.08841149,0.00012050,53.2151,331.8393,78.2687,281.8440,0.00003448,0.00023463000000,1 50803U 22001A   23085.93532364  .00003448  00000-0  23463-3 0  9994,2 50803  53.2151 331.8393 0001205  78.2687 281.8440 15.08841149 67552
2023-03-27 01:37:38.131680,50803,15.08847242,0.00012720,53.2156,331.2447,75.6831,284.4303,0.00005790,0.00038149000000,1 50803U 22001A   23086.06780245  .00005790  00000-0  38149-3 0  9991,2 50803  53.2156 331.2447 0001272  75.6831 284.4303 15.08847242 67576
2023-03-27 20:42:16.447968,50803,15.08842945,0.00014930,53.2171,327.6747,67.7568,292.3583,0.00004337,0.00029038000000,1 50803U 22001A   23086.86269037  .00004337  00000-0  29038-3 0  9993,2 50803  53.2171 327.6747 0001493  67.7568 292.3583 15.08842945 68966
2023-03-27 22:17:39.413760,50803,15.08844904,0.00011100,53.2155,327.3788,73.6788,286.4326,0.00004538,0.00030300000000,1 50803U 22001A   23086.92892840  .00004538  00000-0  30300-3 0  9991,2 50803  53.2155 327.3788 0001110  73.6788 286.4326 15.08844904 67703
2023-03-28 01:28:25.526784,50803,15.08847328,0.00011130,53.2154,326.7835,79.9937,280.1181,0.00004511,0.00030124000000,1 50803U 22001A   23087.06140656  .00004511  00000-0  30124-3 0  9993,2 50803  53.2154 326.7835 0001113  79.9937 280.1181 15.08847328 67721
2023-03-28 20:33:02.593728,50803,15.08855609,0.00010870,53.2150,323.2166,64.8150,295.2954,-0.00000071,0.00001361000000,1 50803U 22001A   23087.85628002 -.00000071  00000-0  13610-4 0  9996,2 50803  53.2150 323.2166 0001087  64.8150 295.2954 15.08855609 67845
2023-03-29 01:19:11.815968,50803,15.08859753,0.00011070,53.2156,322.3235,85.3013,274.8105,0.00004849,0.00032234000000,1 50803U 22001A   23088.05499787  .00004849  00000-0  32234-3 0  9993,2 50803  53.2156 322.3235 0001107  85.3013 274.8105 15.08859753 67875
2023-03-29 01:19:11.815968,50803,15.08859753,0.00011070,53.2156,322.3235,85.3013,274.8105,0.00004849,0.00032234000000,1 50803U 22001A   23088.05499787  .00004849  00000-0  32234-3 0  9993,2 50803  53.2156 322.3235 0001107  85.3013 274.8105 15.08859753 69147
2023-03-29 18:48:27.065376,50803,15.08839857,0.00012830,53.2147,319.0528,94.1723,265.9416,0.00001034,0.00008301600000,1 50803U 22001A   23088.78364659  .00001034  00000-0  83016-4 0  9990,2 50803  53.2147 319.0528 0001283  94.1723 265.9416 15.08839857 69257
2023-03-29 20:23:50.189280,50803,15.08840771,0.00012740,53.2149,318.7554,93.7870,266.3268,0.00001479,0.00011098000000,1 50803U 22001A   23088.84988645  .00001479  00000-0  11098-3 0  9997,2 50803  53.2149 318.7554 0001274  93.7870 266.3268 15.08840771 67998
2023-03-30 01:09:59.350176,50803,15.08847512,0.00015160,53.2165,317.8598,109.6325,250.4831,0.00004300,0.00028802000000,1 50803U 22001A   23089.04860359  .00004300  00000-0  28802-3 0  9998,2 50803  53.2165 317.8598 0001516 109.6325 250.4831 15.08847512 69290
2023-03-30 21:49:59.484864,50803,15.08860487,0.00011500,53.2158,313.9968,86.3081,273.8042,0.00009036,0.00058478000000,1 50803U 22001A   23089.90971626  .00009036  00000-0  58478-3 0  9996,2 50803  53.2158 313.9968 0001150  86.3081 273.8042 15.08860487 68157
2023-03-31 13:43:51.330432,50803,15.08844871,0.00015930,53.2155,311.0210,92.8420,267.2754,0.00006346,0.00041638000000,1 50803U 22001A   23090.57212188  .00006346  00000-0  41638-3 0  9993,2 50803  53.2155 311.0210 0001593  92.8420 267.2754 15.08844871 69521
2023-04-01 00:51:33.123456,50803,15.08852491,0.00010790,53.2153,308.9426,102.6065,257.5048,0.00016391,0.00104520000000,1 50803U 22001A   23091.03580004  .00016391  00000-0  10452-2 0  9990,2 50803  53.2153 308.9426 0001079 102.6065 257.5048 15.08852491 68329
2023-04-01 21:31:35.031936,50803,15.08826388,0.00015920,53.2155,305.0777,105.8712,254.2456,0.00003683,0.00024947000000,1 50803U 22001A   23091.89693324  .00003683  00000-0  24947-3 0  9999,2 50803  53.2155 305.0777 0001592 105.8712 254.2456 15.08826388 68459
2023-04-01 21:31:35.031936,50803,15.08826388,0.00015920,53.2155,305.0777,105.8712,254.2456,0.00003683,0.00024947000000,1 50803U 22001A   23091.89693324  .00003683  00000-0  24947-3 0  9999,2 50803  53.2155 305.0777 0001592 105.8712 254.2456 15.08826388 69720
2023-04-02 13:25:27.224832,50803,15.08823965,0.00010020,53.2147,302.1039,97.2792,262.8314,0.00002710,0.00018834000000,1 50803U 22001A   23092.55934288  .00002710  00000-0  18834-3 0  9998,2 50803  53.2147 302.1039 0001002  97.2792 262.8314 15.08823965 69825
2023-04-02 21:22:23.235744,50803,15.08830513,0.00008650,53.2146,300.6166,84.0457,276.0633,0.00009976,0.00064412000000,1 50803U 22001A   23092.89054671  .00009976  00000-0  64412-3 0  9998,2 50803  53.2146 300.6166 0000865  84.0457 276.0633 15.08830513 68609
2023-04-02 22:57:46.389888,50803,15.08831697,0.00007420,53.2139,300.3189,85.5623,274.5453,0.00010505,0.00067730000000,1 50803U 22001A   23092.95678692  .00010505  00000-0  67730-3 0  9996,2 50803  53.2139 300.3189 0000742  85.5623 274.5453 15.08831697 68616
2023-04-03 19:37:46.089120,50803,15.08868957,0.00006400,53.2136,296.4524,84.6434,275.4631,0.00016144,0.00102930000000,1 50803U 22001A   23093.81789455  .00016144  00000-0  10293-2 0  9998,2 50803  53.2136 296.4524 0000640  84.6434 275.4631 15.08868957 70012
2023-04-03 21:13:09.046272,50803,15.08880708,0.00008900,53.2143,296.1560,69.3868,290.7220,0.00020818,0.00132080000000,1 50803U 22001A   23093.88413248  .00020818  00000-0  13208-2 0  9991,2 50803  53.2143 296.1560 0000890  69.3868 290.7220 15.08880708 68755
2023-04-03 22:48:31.940352,50803,15.08890065,0.00008580,53.2141,295.8585,69.5681,290.5403,0.00024646,0.00155910000000,1 50803U 22001A   23093.95036968  .00024646  00000-0  15591-2 0  9999,2 50803  53.2141 295.8585 0000858  69.5681 290.5403 15.08890065 70037
2023-04-04 13:06:59.940576,50803,15.08868180,0.00001190,53.2158,293.1801,175.4195,184.6799,-0.00000158,0.00000814020000,1 50803U 22001A   23094.54652709 -.00000158  00000-0  81402-5 0  9992,2 50803  53.2158 293.1801 0000119 175.4195 184.6799 15.08868180 70128
2023-04-04 13:06:59.940576,50803,15.08868180,0.00001190,53.2158,293.1801,175.4195,184.6799,-0.00000158,0.00000814020000,1 50803U 22001A   23094.54652709 -.00000158  00000-0  81402-5 0  9992,2 50803  53.2158 293.1801 0000119 175.4195 184.6799 15.08868180 68855
2023-04-05 12:57:47.418624,50803,15.08854351,0.00002560,53.2167,288.7215,18.5362,341.5640,0.00022098,0.00140160000000,1 50803U 22001A   23095.54013216  .00022098  00000-0  14016-2 0  9997,2 50803  53.2167 288.7215 0000256  18.5362 341.5640 15.08854351 69001
2023-04-05 12:57:47.418624,50803,15.08854351,0.00002560,53.2167,288.7215,18.5362,341.5640,0.00022098,0.00140160000000,1 50803U 22001A   23095.54013216  .00022098  00000-0  14016-2 0  9997,2 50803  53.2167 288.7215 0000256  18.5362 341.5640 15.08854351 70272
2023-04-05 17:43:56.959680,50803,15.08840787,0.00011310,53.2144,287.8312,38.1450,321.9622,0.00006270,0.00041168000000,1 50803U 22001A   23095.73885370  .00006270  00000-0  41168-3 0  9999,2 50803  53.2144 287.8312 0001131  38.1450 321.9622 15.08840787 70308
2023-04-05 19:19:19.925472,50803,15.08841019,0.00009770,53.2147,287.5317,79.8268,280.2834,0.00003085,0.00021180000000,1 50803U 22001A   23095.80509173  .00003085  00000-0  21180-3 0  9994,2 50803  53.2147 287.5317 0000977  79.8268 280.2834 15.08841019 69049
2023-04-06 12:48:34.619328,50803,15.08838559,0.00010920,53.2147,284.2601,95.6533,264.4583,0.00002326,0.00016418000000,1 50803U 22001A   23096.53373402  .00002326  00000-0  16418-3 0  9994,2 50803  53.2147 284.2601 0001092  95.6533 264.4583 15.08838559 69151
2023-04-06 12:48:34.619328,50803,15.08838559,0.00010920,53.2147,284.2601,95.6533,264.4583,0.00002326,0.00016418000000,1 50803U 22001A   23096.53373402  .00002326  00000-0  16418-3 0  9994,2 50803  53.2147 284.2601 0001092  95.6533 264.4583 15.08838559 70423
